[
    {
        "Altitude(m)": 709000.0831023933,
        "Argument of Periapsis(deg)": 0.0,
        "Eccentricity": 0.0,
        "Inclination(deg)": 45.0,
        "Latitude(deg)": -22.63868833572919,
        "Longitude(deg)": -175.46179883224065,
        "Mean Anomaly(deg)": 212.7273,
        "RAAN(deg)": 80.0,
        "Satellite Name": "Constellation 1 365",
        "Satellite Number": 365,
        "Semi-Major Axis(m)": 7083131.272910544,
        "Time(s)": 0
    },
    {
        "Altitude(m)": 709013.6376684919,
        "Argument of Periapsis(deg)": 5.994800624540561e-05,
        "Eccentricity": 0.0,
        "Inclination(deg)": 45.0,
        "Latitude(deg)": -22.677898008054296,
        "Longitude(deg)": -175.4156935388609,
        "Mean Anomaly(deg)": 212.78800114024986,
        "RAAN(deg)": 79.99994341083442,
        "Satellite Name": "Constellation 1 365",
        "Satellite Number": 365,
        "Semi-Major Axis(m)": 7083131.272910544,
        "Time(s)": 1
    },
    {
        "Altitude(m)": 709027.1974073333,
        "Argument of Periapsis(deg)": 0.00011989601249081122,
        "Eccentricity": 0.0,
        "Inclination(deg)": 45.0,
        "Latitude(deg)": -22.71709164685209,
        "Longitude(deg)": -175.3695598257862,
        "Mean Anomaly(deg)": 212.84870228049985,
        "RAAN(deg)": 79.99988682166885,
        "Satellite Name": "Constellation 1 365",
        "Satellite Number": 365,
        "Semi-Major Axis(m)": 7083131.272910544,
        "Time(s)": 2
    },
    {
        "Altitude(m)": 709040.7622737022,
        "Argument of Periapsis(deg)": 0.00017984401873621686,
        "Eccentricity": 0.0,
        "Inclination(deg)": 45.0,
        "Latitude(deg)": -22.756269212978115,
        "Longitude(deg)": -175.32339763361057,
        "Mean Anomaly(deg)": 212.90940342074973,
        "RAAN(deg)": 79.9998302325033,
        "Satellite Name": "Constellation 1 365",
        "Satellite Number": 365,
        "Semi-Major Axis(m)": 7083131.272910544,
        "Time(s)": 3
    },
    {
        "Altitude(m)": 709054.3322223545,
        "Argument of Periapsis(deg)": 0.00023979202498162244,
        "Eccentricity": 0.0,
        "Inclination(deg)": 45.0,
        "Latitude(deg)": -22.795430667232676,
        "Longitude(deg)": -175.27720690290874,
        "Mean Anomaly(deg)": 212.97010456099963,
        "RAAN(deg)": 79.99977364333772,
        "Satellite Name": "Constellation 1 365",
        "Satellite Number": 365,
        "Semi-Major Axis(m)": 7083131.272910544,
        "Time(s)": 4
    },
    {
        "Altitude(m)": 709067.9072080092,
        "Argument of Periapsis(deg)": 0.00029974003122702807,
        "Eccentricity": 0.0,
        "Inclination(deg)": 45.0,
        "Latitude(deg)": -22.834575970360174,
        "Longitude(deg)": -175.23098757423742,
        "Mean Anomaly(deg)": 213.03080570124945,
        "RAAN(deg)": 79.99971705417215,
        "Satellite Name": "Constellation 1 365",
        "Satellite Number": 365,
        "Semi-Major Axis(m)": 7083131.272910544,
        "Time(s)": 5
    },
    {
        "Altitude(m)": 709081.4871853492,
        "Argument of Periapsis(deg)": 0.00035968803747243373,
        "Eccentricity": 0.0,
        "Inclination(deg)": 45.0,
        "Latitude(deg)": -22.873705083049597,
        "Longitude(deg)": -175.18473958813428,
        "Mean Anomaly(deg)": 213.09150684149944,
        "RAAN(deg)": 79.99966046500657,
        "Satellite Name": "Constellation 1 365",
        "Satellite Number": 365,
        "Semi-Major Axis(m)": 7083131.272910544,
        "Time(s)": 6
    },
    {
        "Altitude(m)": 709095.0721090331,
        "Argument of Periapsis(deg)": 0.00041963604371783933,
        "Eccentricity": 0.0,
        "Inclination(deg)": 45.0,
        "Latitude(deg)": -22.912817965933193,
        "Longitude(deg)": -175.13846305321653,
        "Mean Anomaly(deg)": 213.1522079817493,
        "RAAN(deg)": 79.99960387584102,
        "Satellite Name": "Constellation 1 365",
        "Satellite Number": 365,
        "Semi-Major Axis(m)": 7083131.272910544,
        "Time(s)": 7
    },
    {
        "Altitude(m)": 709108.6619336752,
        "Argument of Periapsis(deg)": 0.0004795840499632449,
        "Eccentricity": 0.0,
        "Inclination(deg)": 45.0,
        "Latitude(deg)": -22.95191457958865,
        "Longitude(deg)": -175.09215757379184,
        "Mean Anomaly(deg)": 213.2129091219992,
        "RAAN(deg)": 79.99954728667545,
        "Satellite Name": "Constellation 1 365",
        "Satellite Number": 365,
        "Semi-Major Axis(m)": 7083131.272910544,
        "Time(s)": 8
    },
    {
        "Altitude(m)": 709122.2566138769,
        "Argument of Periapsis(deg)": 0.0005395320562086505,
        "Eccentricity": 0.0,
        "Inclination(deg)": 45.0,
        "Latitude(deg)": -22.990994884536267,
        "Longitude(deg)": -175.0458232584414,
        "Mean Anomaly(deg)": 213.2736102622491,
        "RAAN(deg)": 79.99949069750987,
        "Satellite Name": "Constellation 1 365",
        "Satellite Number": 365,
        "Semi-Major Axis(m)": 7083131.272910544,
        "Time(s)": 9
    },
    {
        "Altitude(m)": 709135.8561041896,
        "Argument of Periapsis(deg)": 0.0005994800624540561,
        "Eccentricity": 0.0,
        "Inclination(deg)": 45.0,
        "Latitude(deg)": -23.03005884124068,
        "Longitude(deg)": -174.99946004763143,
        "Mean Anomaly(deg)": 213.33431140249897,
        "RAAN(deg)": 79.9994341083443,
        "Satellite Name": "Constellation 1 365",
        "Satellite Number": 365,
        "Semi-Major Axis(m)": 7083131.272910544,
        "Time(s)": 10
    },
    {
        "Altitude(m)": 709149.4603591409,
        "Argument of Periapsis(deg)": 0.0006594280686994618,
        "Eccentricity": 0.0,
        "Inclination(deg)": 45.0,
        "Latitude(deg)": -23.069106410110066,
        "Longitude(deg)": -174.95306788181094,
        "Mean Anomaly(deg)": 213.39501254274887,
        "RAAN(deg)": 79.99937751917874,
        "Satellite Name": "Constellation 1 365",
        "Satellite Number": 365,
        "Semi-Major Axis(m)": 7083131.272910544,
        "Time(s)": 11
    },
    {
        "Altitude(m)": 709163.0693332201,
        "Argument of Periapsis(deg)": 0.0007193760749448675,
        "Eccentricity": 0.0,
        "Inclination(deg)": 45.0,
        "Latitude(deg)": -23.10813755149623,
        "Longitude(deg)": -174.90664670141163,
        "Mean Anomaly(deg)": 213.45571368299878,
        "RAAN(deg)": 79.99932093001317,
        "Satellite Name": "Constellation 1 365",
        "Satellite Number": 365,
        "Semi-Major Axis(m)": 7083131.272910544,
        "Time(s)": 12
    },
    {
        "Altitude(m)": 709176.6829808974,
        "Argument of Periapsis(deg)": 0.000779324081190273,
        "Eccentricity": 0.0,
        "Inclination(deg)": 45.0,
        "Latitude(deg)": -23.147152225694466,
        "Longitude(deg)": -174.86019644684797,
        "Mean Anomaly(deg)": 213.51641482324874,
        "RAAN(deg)": 79.99926434084759,
        "Satellite Name": "Constellation 1 365",
        "Satellite Number": 365,
        "Semi-Major Axis(m)": 7083131.272910544,
        "Time(s)": 13
    },
    {
        "Altitude(m)": 709190.301256606,
        "Argument of Periapsis(deg)": 0.0008392720874356787,
        "Eccentricity": 0.0,
        "Inclination(deg)": 45.0,
        "Latitude(deg)": -23.186150392943148,
        "Longitude(deg)": -174.81371705851797,
        "Mean Anomaly(deg)": 213.57711596349864,
        "RAAN(deg)": 79.99920775168202,
        "Satellite Name": "Constellation 1 365",
        "Satellite Number": 365,
        "Semi-Major Axis(m)": 7083131.272910544,
        "Time(s)": 14
    },
    {
        "Altitude(m)": 709203.9241147424,
        "Argument of Periapsis(deg)": 0.0008992200936810842,
        "Eccentricity": 0.0,
        "Inclination(deg)": 45.0,
        "Latitude(deg)": -23.22513201342388,
        "Longitude(deg)": -174.76720864489948,
        "Mean Anomaly(deg)": 213.63781710374843,
        "RAAN(deg)": 79.99915116251647,
        "Satellite Name": "Constellation 1 365",
        "Satellite Number": 365,
        "Semi-Major Axis(m)": 7083131.272910544,
        "Time(s)": 15
    },
    {
        "Altitude(m)": 709217.5515096724,
        "Argument of Periapsis(deg)": 0.0009591680999264898,
        "Eccentricity": 0.0,
        "Inclination(deg)": 45.0,
        "Latitude(deg)": -23.264097047262318,
        "Longitude(deg)": -174.720670810163,
        "Mean Anomaly(deg)": 213.69851824399834,
        "RAAN(deg)": 79.99909457335089,
        "Satellite Name": "Constellation 1 365",
        "Satellite Number": 365,
        "Semi-Major Axis(m)": 7083131.272910544,
        "Time(s)": 16
    },
    {
        "Altitude(m)": 709231.1833957467,
        "Argument of Periapsis(deg)": 0.0010191161061718953,
        "Eccentricity": 0.0,
        "Inclination(deg)": 45.0,
        "Latitude(deg)": -23.303045454526014,
        "Longitude(deg)": -174.67410366275385,
        "Mean Anomaly(deg)": 213.7592193842483,
        "RAAN(deg)": 79.99903798418532,
        "Satellite Name": "Constellation 1 365",
        "Satellite Number": 365,
        "Semi-Major Axis(m)": 7083131.272910544,
        "Time(s)": 17
    },
    {
        "Altitude(m)": 709244.8197272674,
        "Argument of Periapsis(deg)": 0.001079064112417301,
        "Eccentricity": 0.0,
        "Inclination(deg)": 45.0,
        "Latitude(deg)": -23.341977195225823,
        "Longitude(deg)": -174.62750714300424,
        "Mean Anomaly(deg)": 213.81992052449823,
        "RAAN(deg)": 79.99898139501974,
        "Satellite Name": "Constellation 1 365",
        "Satellite Number": 365,
        "Semi-Major Axis(m)": 7083131.272910544,
        "Time(s)": 18
    }
]